GLOBALSTAR M001         
1 25162U 98008A   24275.65522730 -.00000094  00000+0  24423-4 0  9993
2 25162  52.0066   5.6948 0001983  80.0971  64.3594 12.38194333211681
GLOBALSTAR M004         
1 25163U 98008B   24275.77187604 -.00000036  00000+0  37310-3 0  9998
2 25163  51.9982 122.5035 0003935  78.1078   2.4785 12.63373539229025
GLOBALSTAR M002         
1 25164U 98008C   24275.73448114 -.00000059  00000+0  34457-3 0  9995
2 25164  51.9998 168.2296 0002142  44.6980 315.4012 11.61504226154032
GLOBALSTAR M003         
1 25165U 98008D   24275.84060409  .00000046  00000+0  14472-2 0  9994
2 25165  51.9925 164.0256 0008378 130.2483 307.7143 12.12040875201898
GLOBALSTAR M014         
1 25306U 98023A   24275.79055935 -.00000039  00000+0  71801-3 0  9993
2 25306  51.9818  96.7446 0000382 159.1677 214.0330 11.65472260161044
GLOBALSTAR M006         
1 25307U 98023B   24275.91233727 -.00000007  00000+0  14011-2 0  9999
2 25307  51.9916 139.2594 0004071  12.6882  87.5705 11.58167543186909
GLOBALSTAR M015         
1 25308U 98023C   24275.89742341 -.00000042  00000+0  70899-3 0  9990
2 25308  51.9806 225.9290 0012815 339.1039  55.1628 11.48851598164393
GLOBALSTAR M008         
1 25309U 98023D   24275.86632028 -.00000057  00000+0  31099-3 0  9993
2 25309  51.9958 226.9834 0002851   1.2070  26.3204 12.36050452205909
